GSAT0201 (GALILEO 5)    
1 40128U 14050A   24225.14254676 -.00000061  00000+0  00000+0 0  9991
2 40128  49.6013 300.8142 1612770 153.4522 215.8349  1.85519549 65813
GSAT0202 (GALILEO 6)    
1 40129U 14050B   24225.40063628 -.00000057  00000+0  00000+0 0  9991
2 40129  49.6177 299.8813 1611757 154.2600 214.7678  1.85520203 67989
COSMOS 2500 (755)       
1 40001U 14032A   24225.19052026 -.00000072  00000+0  00000+0 0  9993
2 40001  65.5873 336.5481 0007992 195.6859 164.3145  2.13105959 79095
GPS BIIF-6  (PRN 06)    
1 39741U 14026A   24225.38047899 -.00000084  00000+0  00000+0 0  9991
2 39741  56.7068 357.6925 0031089 314.8485  44.9108  2.00564378 75024
GPS BIIF-7  (PRN 09)    
1 40105U 14045A   24224.97419456 -.00000021  00000+0  00000+0 0  9995
2 40105  54.9526 115.3791 0027676 114.8209 245.5259  2.00570255 72550
